MALLIGYONG-1            
1 58400U 23179A   23363.17036901  .00006662  00000+0  29646-3 0  9992
2 58400  97.4257 247.4514 0016711 141.0812 219.1631 15.21681633  5715
